2022-023A               
1 51946U 22023A   26066.38437076  .00004303  00000+0  19500-3 0  9999
2 51946  63.4765 256.0240 0098533 341.4326  18.3199 15.18202647222269
STARLINK-34605          
1 64677U 25139P   26068.50544560  .00008905  00000+0  31299-3 0  9999
2 64677  53.1583 117.4173 0000812  70.4883 289.6206 15.30141117 40407
